IRIDIUM 126             
1 42809U 17039G   25317.77322574  .00000752  00000+0  26132-3 0  9998
2 42809  86.3952  83.6947 0001997  88.1810 271.9615 14.34220521439075
IRIDIUM 124             
1 42810U 17039H   25317.43347566  .00000929  00000+0  27011-3 0  9994
2 42810  86.4523  20.5566 0001999  94.8603 265.2826 14.43285999443991
IRIDIUM 128             
1 42811U 17039J   25317.90350161  .00000089  00000+0  24819-4 0  9993
2 42811  86.3946 115.1755 0001709 102.1554 257.9833 14.34219397439123
IRIDIUM 121             
1 42812U 17039K   25317.79225405  .00000293  00000+0  97728-4 0  9999
2 42812  86.3952  83.7131 0002055  97.1436 262.9994 14.34219689438954
IRIDIUM 133             
1 42955U 17061A   25317.44683610 -.00000001  00000+0 -73236-5 0  9998
2 42955  86.3946 115.4784 0001888  92.4415 267.6997 14.34217483423858
IRIDIUM 100             
1 42956U 17061B   25317.85910348  .00000020  00000+0  73695-7 0  9995
2 42956  86.3948 115.2300 0001791  89.3445 270.7956 14.34217643423919
IRIDIUM 122             
1 42957U 17061C   25317.40878037 -.00000002  00000+0 -77954-5 0  9997
2 42957  86.3944 115.4176 0001861  89.2388 270.9021 14.34217509423851
IRIDIUM 129             
1 42958U 17061D   25317.85276300 -.00000024  00000+0 -15622-4 0  9999
2 42958  86.3945 115.2966 0002307  86.5798 273.5662 14.34217120423937
